NORAD_CAT_ID,OBJECT_NAME,OBJECT_TYPE,EPOCH,MEAN_MOTION,ECCENTRICITY,INCLINATION,RA_OF_ASC_NODE,ARG_OF_PERICENTER,MEAN_ANOMALY,BSTAR,MEAN_MOTION_DOT,MEAN_MOTION_DDOT,TLE_LINE0,TLE_LINE1,TLE_LINE2,SEMIMAJOR_AXIS,PERIOD,APOGEE,PERIGEE,DECAYED
49744.0,STARLINK-3231,PAYLOAD,2022-03-21 14:00:01,15.08840706,0.0002071,53.2024,174.4759,38.9223,30.9491,-0.00062231,-0.00010179,0.0,0 STARLINK-3231,1 49744U 21115W   22080.58334491 -.00010179  00000-0 -62231-3 0  9994,2 49744  53.2024 174.4759 0002071  38.9223  30.9491 15.08840706  3592,6917.878000000002,95.438,541.1759999999998,538.311,0.0
49744.0,STARLINK-3231,PAYLOAD,2022-03-21 22:00:00,15.08846911,0.000196,53.2019,172.97799999999995,37.6842,43.7804,-0.0030385,-0.00048332,0.0,0 STARLINK-3231,1 49744U 21115W   22080.91667824 -.00048332  00000-0 -30385-2 0  9996,2 49744  53.2019 172.9780 0001960  37.6842  43.7804 15.08846911 17928,6917.859,95.437,541.08,538.368,0.0
49744.0,STARLINK-3231,PAYLOAD,2022-03-22 14:00:01,15.08823889,0.0002079,53.2019,169.9854,37.414,67.2183,0.00078899,0.00012286,0.0,0 STARLINK-3231,1 49744U 21115W   22081.58334491  .00012286  00000-0  78899-3 0  9991,2 49744  53.2019 169.9854 0002079  37.4140  67.2183 15.08823889 18029,6917.93,95.439,541.2330000000002,538.356,0.0
49744.0,STARLINK-3231,PAYLOAD,2022-03-22 22:00:01,15.08853306,0.0002008,53.2016,168.4873,37.2927,78.9854,-0.0014083,-0.0002264,0.0,0 STARLINK-3231,1 49744U 21115W   22081.91668981 -.00022640  00000-0 -14083-2 0  9993,2 49744  53.2016 168.4873 0002008  37.2927  78.9854 15.08853306  3603,6917.84,95.437,541.094,538.316,0.0
49744.0,STARLINK-3231,PAYLOAD,2022-03-23 14:00:01,15.08853835,0.0002156,53.2018,165.4946,36.468,102.957,-0.00085034,-0.00013802,0.0,0 STARLINK-3231,1 49744U 21115W   22082.58334491 -.00013802  00000-0 -85034-3 0  9998,2 49744  53.2018 165.4946 0002156  36.4680 102.9570 15.08853835  3615,6917.8380000000025,95.437,541.195,538.212,0.0
49744.0,STARLINK-3231,PAYLOAD,2022-03-23 22:00:00,15.08850259,0.0002012,53.2017,163.9965,35.0834,115.9535,-0.0017402,-0.00027885,0.0,0 STARLINK-3231,1 49744U 21115W   22082.91667824 -.00027885  00000-0 -17402-2 0  9993,2 49744  53.2017 163.9965 0002012  35.0834 115.9535 15.08850259 18220,6917.849,95.437,541.106,538.322,0.0
49744.0,STARLINK-3231,PAYLOAD,2022-03-24 14:00:01,15.08845603,0.0002187,53.2022,161.0039,33.9443,140.2945,-0.00020778,-3.594e-05,0.0,0 STARLINK-3231,1 49744U 21115W   22083.58334491 -.00003594  00000-0 -20778-3 0  9990,2 49744  53.2022 161.0039 0002187  33.9443 140.2945 15.08845603  3589,6917.863,95.437,541.241,538.215,0.0
49744.0,STARLINK-3231,PAYLOAD,2022-03-24 22:00:00,15.08846266,0.0002016,53.2022,159.5056,32.762,153.0818,-0.0014716,-0.00023637,0.0,0 STARLINK-3231,1 49744U 21115W   22083.91667824 -.00023637  00000-0 -14716-2 0  9990,2 49744  53.2022 159.5056 0002016  32.7620 153.0818 15.08846266  3605,6917.861,95.437,541.121,538.332,0.0
49744.0,STARLINK-3231,PAYLOAD,2022-03-25 00:00:02,15.08819226,0.0001968,53.2025,159.1309,33.5343,245.28,0.0019429,0.00030752,0.0,0 STARLINK-3231,1 49744U 21115W   22084.00002315  .00030752  00000-0  19429-2 0  9999,2 49744  53.2025 159.1309 0001968  33.5343 245.2800 15.08819226 18394,6917.944,95.439,541.17,538.447,0.0
49744.0,STARLINK-3231,PAYLOAD,2022-03-25 14:00:01,15.08838462,0.0002183,53.2028,156.5133,31.3569,177.6809,-0.00048134,-7.941e-05,0.0,0 STARLINK-3231,1 49744U 21115W   22084.58334491 -.00007941  00000-0 -48134-3 0  9997,2 49744  53.2028 156.5133 0002183  31.3569 177.6809 15.08838462 18478,6917.885,95.438,541.26,538.24,0.0
49744.0,STARLINK-3231,PAYLOAD,2022-03-25 22:00:01,15.08831588,0.0001998,53.2029,155.015,30.7896,189.9046,-0.00077089,-0.00012533,0.0,0 STARLINK-3231,1 49744U 21115W   22084.91668981 -.00012533  00000-0 -77089-3 0  9992,2 49744  53.2029 155.0150 0001998  30.7896 189.9046 15.08831588  3634,6917.906,95.438,541.153,538.389,0.0
49744.0,STARLINK-3231,PAYLOAD,2022-03-26 14:00:01,15.088301500000002,0.0002215,53.2032,152.0229,31.3308,212.4828,0.00069384,0.00010769,0.0,0 STARLINK-3231,1 49744U 21115W   22085.58334491  .00010769  00000-0  69384-3 0  9998,2 49744  53.2032 152.0229 0002215  31.3308 212.4828 15.08830150  3577,6917.91,95.438,541.308,538.243,0.0
49744.0,STARLINK-3231,PAYLOAD,2022-03-26 22:00:00,15.0882803,0.0002079,53.2032,150.5246,34.492,220.9175,-0.0009513,-0.00015392,0.0,0 STARLINK-3231,1 49744U 21115W   22085.91667824 -.00015392  00000-0 -95130-3 0  9991,2 49744  53.2032 150.5246 0002079  34.4920 220.9175 15.08828030 18682,6917.917,95.438,541.22,538.344,0.0
49744.0,STARLINK-3231,PAYLOAD,2022-03-27 14:00:01,15.08813092,0.0002277,53.2032,147.5327,34.1531,244.4246,0.0028751,0.00045734,0.0,0 STARLINK-3231,1 49744U 21115W   22086.58334491  .00045734  00000-0  28751-2 0  9991,2 49744  53.2032 147.5327 0002277  34.1531 244.4246 15.08813092 18786,6917.9630000000025,95.439,541.403,538.252,0.0
49744.0,STARLINK-3231,PAYLOAD,2022-03-27 22:00:01,15.08835141,0.0002039,53.2032,146.0342,34.5672,255.6683,-0.0013895,-0.00022332,0.0,0 STARLINK-3231,1 49744U 21115W   22086.91668981 -.00022332  00000-0 -13895-2 0  9996,2 49744  53.2032 146.0342 0002039  34.5672 255.6683 15.08835141  3561,6917.895,95.438,541.1709999999998,538.35,0.0
49744.0,STARLINK-3231,PAYLOAD,2022-03-28 06:00:00,15.08921259,0.0002003,53.2094,144.5082,36.8537,264.898,-0.0165629999999999,-0.00255258,0.0,0 STARLINK-3231,1 49744U 21115W   22087.25001157 -.00255258  00000-0 -16563-1 0  9999,2 49744  53.2094 144.5082 0002003  36.8537 264.8980 15.08921259 18888,6917.632,95.432,540.883,538.111,0.0
49744.0,STARLINK-3231,PAYLOAD,2022-03-28 14:00:01,15.08815748,0.0002237,53.2028,143.0424,33.0559,280.3559,0.0032284,0.00051434,0.0,0 STARLINK-3231,1 49744U 21115W   22087.58335648  .00051434  00000-0  32284-2 0  9997,2 49744  53.2028 143.0424 0002237  33.0559 280.3559 15.08815748  3593,6917.955,95.439,541.367,538.2719999999998,0.0
49744.0,STARLINK-3231,PAYLOAD,2022-03-28 22:00:00,15.088395000000002,0.0002071,53.2041,141.5439,36.3166,288.6265,0.00084403,0.0001317,0.0,0 STARLINK-3231,1 49744U 21115W   22087.91667824  .00013170  00000-0  84403-3 0  9994,2 49744  53.2041 141.5439 0002071  36.3166 288.6265 15.08839500 18989,6917.882,95.438,541.18,538.314,0.0
49744.0,STARLINK-3231,PAYLOAD,2022-03-29 14:00:01,15.08811529,0.0002346,53.2044,138.55200000000002,36.9141,311.2308,0.0026191,0.0004161,0.0,0 STARLINK-3231,1 49744U 21115W   22088.58334491  .00041610  00000-0  26191-2 0  9998,2 49744  53.2044 138.5520 0002346  36.9141 311.2308 15.08811529 19087,6917.967,95.439,541.455,538.2090000000002,0.0
49744.0,STARLINK-3231,PAYLOAD,2022-03-29 22:00:00,15.08815181,0.0002154,53.2044,137.0535,39.0657,320.666,3.6944e-05,2.99e-06,0.0,0 STARLINK-3231,1 49744U 21115W   22088.91667824  .00000299  00000-0  36944-4 0  9991,2 49744  53.2044 137.0535 0002154  39.0657 320.6660 15.08815181 19139,6917.956,95.439,541.311,538.331,0.0
49744.0,STARLINK-3231,PAYLOAD,2022-03-30 14:00:01,15.0880447,0.000239,53.2041,134.0616,36.0968,346.8414,0.0031124,0.00049547,0.0,0 STARLINK-3231,1 49744U 21115W   22089.58335648  .00049547  00000-0  31124-2 0  9993,2 49744  53.2041 134.0616 0002390  36.0968 346.8414 15.08804470  3574,6917.989000000001,95.44,541.507,538.201,0.0
49744.0,STARLINK-3231,PAYLOAD,2022-03-30 22:00:00,15.08817135,0.000223,53.2041,132.5631,39.4407,355.0168,0.0020368,0.00032257,0.0,0 STARLINK-3231,1 49744U 21115W   22089.91667824  .00032257  00000-0  20368-2 0  9992,2 49744  53.2041 132.5631 0002230  39.4407 355.0168 15.08817135  3628,6917.95,95.439,541.3580000000002,538.273,0.0
49744.0,STARLINK-3231,PAYLOAD,2022-03-31 06:00:00,15.08858921,0.0002331,53.2041,131.0668,40.4179,5.6191,-0.0014638,-0.00023522,0.0,0 STARLINK-3231,1 49744U 21115W   22090.25001157 -.00023522  00000-0 -14638-2 0  9992,2 49744  53.2041 131.0668 0002331  40.4179   5.6191 15.08858921 19339,6917.823,95.436,541.3,538.075,0.0
49744.0,STARLINK-3231,PAYLOAD,2022-03-31 14:00:01,15.08838948,0.0002463,53.20399999999999,129.571,35.764,21.8841,-0.00010036,-1.885e-05,0.0,0 STARLINK-3231,1 49744U 21115W   22090.58334491 -.00001885  00000-0 -10036-3 0  9995,2 49744  53.2040 129.5710 0002463  35.7640  21.8841 15.08838948  3606,6917.884,95.438,541.452,538.045,0.0
49744.0,STARLINK-3231,PAYLOAD,2022-03-31 22:00:00,15.08820348,0.0002243,53.2042,128.0722,38.6418,30.626,0.002815,0.00044775,0.0,0 STARLINK-3231,1 49744U 21115W   22090.91667824  .00044775  00000-0  28150-2 0  9999,2 49744  53.2042 128.0722 0002243  38.6418  30.6260 15.08820348 19432,6917.94,95.439,541.357,538.254,0.0
49744.0,STARLINK-3231,PAYLOAD,2022-04-01 14:00:01,15.08860133,0.000247,53.2041,125.0801,34.339,58.1342,-0.0015292,-0.00024558,0.0,0 STARLINK-3231,1 49744U 21115W   22091.58334491 -.00024558  00000-0 -15292-2 0  9996,2 49744  53.2041 125.0801 0002470  34.3390  58.1342 15.08860133 19533,6917.819,95.436,541.393,537.975,0.0
49744.0,STARLINK-3231,PAYLOAD,2022-04-01 22:00:00,15.08807441,0.0002179,53.2043,123.5813,35.43,68.6729,0.0013586,0.00021381,0.0,0 STARLINK-3231,1 49744U 21115W   22091.91667824  .00021381  00000-0  13586-2 0  9995,2 49744  53.2043 123.5813 0002179  35.4300  68.6729 15.08807441  3586,6917.98,95.44,541.352,538.337,0.0
49744.0,STARLINK-3231,PAYLOAD,2022-04-02 14:00:01,15.08826826,0.0002418,53.2042,120.5891,32.2573,95.0577,0.0013993,0.00022045,0.0,0 STARLINK-3231,1 49744U 21115W   22092.58335648  .00022045  00000-0  13993-2 0  9995,2 49744  53.2042 120.5891 0002418  32.2573  95.0577 15.08826826 19682,6917.920999999999,95.438,541.4580000000002,538.113,0.0
49744.0,STARLINK-3231,PAYLOAD,2022-04-02 22:00:01,15.08807076,0.000215,53.2044,119.0906,34.6037,104.3126,0.0019287,0.00030514,0.0,0 STARLINK-3231,1 49744U 21115W   22092.91668981  .00030514  00000-0  19287-2 0  9993,2 49744  53.2044 119.0906 0002150  34.6037 104.3126 15.08807076  3603,6917.981,95.44,541.3330000000002,538.359,0.0
